{"type": "FeatureCollection", "features": [ {"type": "Feature", "properties": {"norad_id": 40697, "name": "SENTINEL-2A", "group": "resource", "lat": -60.21248836358506, "lon": 76.02003324142314, "alt_km": 796.7827102200026, "timestamp": "2025-12-14T05:42:18.114757+00:00", "meta": {"OBJECT_NAME": "SENTINEL-2A", "OBJECT_ID": "2015-028A", "EPOCH": "2025-12-13T16:33:53.272224", "MEAN_MOTION": 14.30814225, "ECCENTRICITY": 0.00010822, "INCLINATION": 98.5687, "RA_OF_ASC_NODE": 60.2086, "ARG_OF_PERICENTER": 87.8943, "MEAN_ANOMALY": 272.2364, "EPHEMERIS_TYPE": 0, "CLASSIFICATION_TYPE": "U", "NORAD_CAT_ID": 40697, "ELEMENT_SET_NO": 999, "REV_AT_EPOCH": 54720, "BSTAR": 0.0001422295, "MEAN_MOTION_DOT": 3.29e-06, "MEAN_MOTION_DDOT": 0}, "tle": {"line1": "1 40697U 15028A   25347.69019991  .00000329  00000+0  14223-3 0  9995", "line2": "2 40697  98.5687  60.2086 0001082  87.8943 272.2364 14.30814225547207"}}, "geometry": {"type": "Point", "coordinates": [76.02003324142314, -60.21248836358506]}}, {"type": "Feature", "properties": {"norad_id": 40701, "name": "GAOFEN-8", "group": "resource", "lat": -25.70335369671617, "lon": -17.279132420894932, "alt_km": 453.56988621306664, "timestamp": "2025-12-14T05:42:18.114768+00:00", "meta": {"OBJECT_NAME": "GAOFEN-8", "OBJECT_ID": "2015-030A", "EPOCH": "2025-12-13T16:19:38.349408", "MEAN_MOTION": 15.38600851, "ECCENTRICITY": 0.00116728, "INCLINATION": 97.6913, "RA_OF_ASC_NODE": 165.8662, "ARG_OF_PERICENTER": 134.6295, "MEAN_ANOMALY": 225.5903, "EPHEMERIS_TYPE": 0, "CLASSIFICATION_TYPE": "U", "NORAD_CAT_ID": 40701, "ELEMENT_SET_NO": 999, "REV_AT_EPOCH": 58285, "BSTAR": 0.00084606521, "MEAN_MOTION_DOT": 0.00032331, "MEAN_MOTION_DDOT": 0}, "tle": {"line1": "1 40701U 15030A   25347.68030497  .00032331  00000+0  84607-3 0  9998", "line2": "2 40701  97.6913 165.8662 0011672 134.6295 225.5903 15.38600851582851"}}, "geometry": {"type": "Point", "coordinates": [-17.279132420894932, -25.70335369671617]}}, {"type": "Feature", "properties": {"norad_id": 40718, "name": "CARBONITE 1 (CBNT-1)", "group": "resource", "lat": -16.460209474856487, "lon": -13.057530744740438, "alt_km": 615.9963825431341, "timestamp": "2025-12-14T05:42:18.114778+00:00", "meta": {"OBJECT_NAME": "CARBONITE 1 (CBNT-1)", "OBJECT_ID": "2015-032D", "EPOCH": "2025-12-13T15:51:54.102240", "MEAN_MOTION": 14.82752732, "ECCENTRICITY": 0.00145077, "INCLINATION": 97.6403, "RA_OF_ASC_NODE": 168.6644, "ARG_OF_PERICENTER": 178.2814, "MEAN_ANOMALY": 181.8452, "EPHEMERIS_TYPE": 0, "CLASSIFICATION_TYPE": "U", "NORAD_CAT_ID": 40718, "ELEMENT_SET_NO": 999, "REV_AT_EPOCH": 56184, "BSTAR": 0.00049545092, "MEAN_MOTION_DOT": 3.96e-05, "MEAN_MOTION_DDOT": 0}, "tle": {"line1": "1 40718U 15032D   25347.66104285  .00003960  00000+0  49545-3 0  9991", "line2": "2 40718  97.6403 168.6644 0014507 178.2814 181.8452 14.82752732561848"}}, "geometry": {"type": "Point", "coordinates": [-13.057530744740438, -16.460209474856487]}}, {"type": "Feature", "properties": {"norad_id": 40878, "name": "YAOGAN-27", "group": "resource", "lat": 73.79798511149892, "lon": -60.05221265380921, "alt_km": 1197.86966702686, "timestamp": "2025-12-14T05:42:18.114788+00:00", "meta": {"OBJECT_NAME": "YAOGAN-27", "OBJECT_ID": "2015-040A", "EPOCH": "2025-12-13T16:32:31.338240", "MEAN_MOTION": 13.16059608, "ECCENTRICITY": 0.0007635, "INCLINATION": 100.1016, "RA_OF_ASC_NODE": 337.2664, "ARG_OF_PERICENTER": 284.6861, "MEAN_ANOMALY": 75.3406, "EPHEMERIS_TYPE": 0, "CLASSIFICATION_TYPE": "U", "NORAD_CAT_ID": 40878, "ELEMENT_SET_NO": 999, "REV_AT_EPOCH": 49326, "BSTAR": -0.00080197742, "MEAN_MOTION_DOT": -3.47e-06, "MEAN_MOTION_DDOT": 0}, "tle": {"line1": "1 40878U 15040A   25347.68925160 -.00000347  00000+0 -80198-3 0  9999", "line2": "2 40878 100.1016 337.2664 0007635 284.6861  75.3406 13.16059608493263"}}, "geometry": {"type": "Point", "coordinates": [-60.05221265380921, 73.79798511149892]}}, {"type": "Feature", "properties": {"norad_id": 40894, "name": "GAOFEN-9 01", "group": "resource", "lat": 63.09854157442862, "lon": -137.4999514303419, "alt_km": 614.1943555782118, "timestamp": "2025-12-14T05:42:18.114799+00:00", "meta": {"OBJECT_NAME": "GAOFEN-9 01", "OBJECT_ID": "2015-047A", "EPOCH": "2025-12-13T16:13:36.940800", "MEAN_MOTION": 14.82425972, "ECCENTRICITY": 0.00283091, "INCLINATION": 97.6546, "RA_OF_ASC_NODE": 26.5912, "ARG_OF_PERICENTER": 31.3692, "MEAN_ANOMALY": 328.9204, "EPHEMERIS_TYPE": 0, "CLASSIFICATION_TYPE": "U", "NORAD_CAT_ID": 40894, "ELEMENT_SET_NO": 999, "REV_AT_EPOCH": 55270, "BSTAR": 0.00022212091, "MEAN_MOTION_DOT": 1.741e-05, "MEAN_MOTION_DDOT": 0}, "tle": {"line1": "1 40894U 15047A   25347.67612200  .00001741  00000+0  22212-3 0  9991", "line2": "2 40894  97.6546  26.5912 0028309  31.3692 328.9204 14.82425972552706"}}, "geometry": {"type": "Point", "coordinates": [-137.4999514303419, 63.09854157442862]}}, {"type": "Feature", "properties": {"norad_id": 41026, "name": "YAOGAN-28", "group": "resource", "lat": 46.702230043849454, "lon": -46.215365567596166, "alt_km": 480.23697320021347, "timestamp": "2025-12-14T05:42:18.114809+00:00", "meta": {"OBJECT_NAME": "YAOGAN-28", "OBJECT_ID": "2015-064A", "EPOCH": "2025-12-13T16:31:19.311744", "MEAN_MOTION": 15.24376338, "ECCENTRICITY": 0.00123994, "INCLINATION": 97.2801, "RA_OF_ASC_NODE": 125.4536, "ARG_OF_PERICENTER": 122.9933, "MEAN_ANOMALY": 237.2499, "EPHEMERIS_TYPE": 0, "CLASSIFICATION_TYPE": "U", "NORAD_CAT_ID": 41026, "ELEMENT_SET_NO": 999, "REV_AT_EPOCH": 56239, "BSTAR": 0.00045650045, "MEAN_MOTION_DOT": 0.00011142, "MEAN_MOTION_DDOT": 0}, "tle": {"line1": "1 41026U 15064A   25347.68841796  .00011142  00000+0  45650-3 0  9990", "line2": "2 41026  97.2801 125.4536 0012399 122.9933 237.2499 15.24376338562394"}}, "geometry": {"type": "Point", "coordinates": [-46.215365567596166, 46.702230043849454]}}, {"type": "Feature", "properties": {"norad_id": 41038, "name": "YAOGAN-29", "group": "resource", "lat": 5.666102506459044, "lon": 10.61251810940339, "alt_km": 622.4752176880775, "timestamp": "2025-12-14T05:42:18.114823+00:00", "meta": {"OBJECT_NAME": "YAOGAN-29", "OBJECT_ID": "2015-069A", "EPOCH": "2025-12-13T16:43:25.273056", "MEAN_MOTION": 14.82885115, "ECCENTRICITY": 9.95e-06, "INCLINATION": 98.0223, "RA_OF_ASC_NODE": 10.8716, "ARG_OF_PERICENTER": 281.8676, "MEAN_ANOMALY": 78.2526, "EPHEMERIS_TYPE": 0, "CLASSIFICATION_TYPE": "U", "NORAD_CAT_ID": 41038, "ELEMENT_SET_NO": 999, "REV_AT_EPOCH": 54313, "BSTAR": 0.00014713133, "MEAN_MOTION_DOT": 1.138e-05, "MEAN_MOTION_DDOT": 0}, "tle": {"line1": "1 41038U 15069A   25347.69682029  .00001138  00000+0  14713-3 0  9991", "line2": "2 41038  98.0223  10.8716 0000099 281.8676  78.2526 14.82885115543130"}}, "geometry": {"type": "Point", "coordinates": [10.61251810940339, 5.666102506459044]}}, {"type": "Feature", "properties": {"norad_id": 41167, "name": "KENT RIDGE 1", "group": "resource", "lat": 12.449756947431766, "lon": -35.62698864211552, "alt_km": 491.1808564579351, "timestamp": "2025-12-14T05:42:18.114837+00:00", "meta": {"OBJECT_NAME": "KENT RIDGE 1", "OBJECT_ID": "2015-077B", "EPOCH": "2025-12-12T23:16:30.783072", "MEAN_MOTION": 15.21639218, "ECCENTRICITY": 0.00085187, "INCLINATION": 14.9786, "RA_OF_ASC_NODE": 209.434, "ARG_OF_PERICENTER": 133.9708, "MEAN_ANOMALY": 226.1317, "EPHEMERIS_TYPE": 0, "CLASSIFICATION_TYPE": "U", "NORAD_CAT_ID": 41167, "ELEMENT_SET_NO": 999, "REV_AT_EPOCH": 55267, "BSTAR": 0.00025287461, "MEAN_MOTION_DOT": 6.651e-05, "MEAN_MOTION_DDOT": 0}, "tle": {"line1": "1 41167U 15077B   25346.96980073  .00006651  00000+0  25287-3 0  9995", "line2": "2 41167  14.9786 209.4340 0008518 133.9708 226.1317 15.21639218552676"}}, "geometry": {"type": "Point", "coordinates": [-35.62698864211552, 12.449756947431766]}}, {"type": "Feature", "properties": {"norad_id": 41194, "name": "GAOFEN-4", "group": "resource", "lat": -0.057939149362143026, "lon": -85.5568085905163, "alt_km": 35787.36482760349, "timestamp": "2025-12-14T05:42:18.114850+00:00", "meta": {"OBJECT_NAME": "GAOFEN-4", "OBJECT_ID": "2015-083A", "EPOCH": "2025-12-13T16:48:21.582720", "MEAN_MOTION": 1.00269213, "ECCENTRICITY": 0.0003384, "INCLINATION": 0.173, "RA_OF_ASC_NODE": 81.2734, "ARG_OF_PERICENTER": 101.0783, "MEAN_ANOMALY": 258.0516, "EPHEMERIS_TYPE": 0, "CLASSIFICATION_TYPE": "U", "NORAD_CAT_ID": 41194, "ELEMENT_SET_NO": 999, "REV_AT_EPOCH": 3666, "BSTAR": 0, "MEAN_MOTION_DOT": -3.19e-06, "MEAN_MOTION_DDOT": 0}, "tle": {"line1": "1 41194U 15083A   25347.70024980 -.00000319  00000+0  00000+0 0  9999", "line2": "2 41194   0.1730  81.2734 0003384 101.0783 258.0516  1.00269213 36667"}}, "geometry": {"type": "Point", "coordinates": [-85.5568085905163, -0.057939149362143026]}}, {"type": "Feature", "properties": {"norad_id": 41240, "name": "JASON-3", "group": "resource", "lat": 48.106997547027724, "lon": -175.6088448310104, "alt_km": 1310.1640998153534, "timestamp": "2025-12-14T05:42:18.114861+00:00", "meta": {"OBJECT_NAME": "JASON-3", "OBJECT_ID": "2016-002A", "EPOCH": "2025-12-13T16:22:26.647968", "MEAN_MOTION": 12.87626567, "ECCENTRICITY": 0.00071426, "INCLINATION": 66.0391, "RA_OF_ASC_NODE": 155.8426, "ARG_OF_PERICENTER": 270.8565, "MEAN_ANOMALY": 89.1635, "EPHEMERIS_TYPE": 0, "CLASSIFICATION_TYPE": "U", "NORAD_CAT_ID": 41240, "ELEMENT_SET_NO": 999, "REV_AT_EPOCH": 46336, "BSTAR": 0.00015740841, "MEAN_MOTION_DOT": -2.2e-07, "MEAN_MOTION_DDOT": 0}, "tle": {"line1": "1 41240U 16002A   25347.68225287 -.00000022  00000+0  15741-3 0  9996", "line2": "2 41240  66.0391 155.8426 0007142 270.8565  89.1635 12.87626567463360"}}, "geometry": {"type": "Point", "coordinates": [-175.6088448310104, 48.106997547027724]}}]}